{"type": "FeatureCollection", "features": [{"type": "Feature", "properties": {"norad_id": 28890, "name": "BEIJING 1", "group": "dmc", "lat": -15.016207171097951, "lon": 127.47467127043886, "alt_km": 693.2480751794119, "timestamp": "2025-12-23T16:57:12.011473+00:00", "meta": {"OBJECT_NAME": "BEIJING 1", "OBJECT_ID": "2005-043A", "EPOCH": "2025-12-23T07:10:35.411808", "MEAN_MOTION": 14.63374804, "ECCENTRICITY": 0.00157762, "INCLINATION": 98.2663, "RA_OF_ASC_NODE": 124.8314, "ARG_OF_PERICENTER": 110.3124, "MEAN_ANOMALY": 249.9775, "EPHEMERIS_TYPE": 0, "CLASSIFICATION_TYPE": "U", "NORAD_CAT_ID": 28890, "ELEMENT_SET_NO": 999, "REV_AT_EPOCH": 7492, "BSTAR": 5.5785881e-05, "MEAN_MOTION_DOT": 2.4e-06, "MEAN_MOTION_DDOT": 0}, "tle": {"line1": "1 28890U 05043A   25357.29902097  .00000240  00000+0  55786-4 0  9999", "line2": "2 28890  98.2663 124.8314 0015776 110.3124 249.9775 14.63374804 74929"}}, "geometry": {"type": "Point", "coordinates": [127.47467127043886, -15.016207171097951]}}, {"type": "Feature", "properties": {"norad_id": 33320, "name": "HUANJING 1A (HJ-1A)", "group": "dmc", "lat": 79.07447501642302, "lon": -58.61516870739005, "alt_km": 609.390619311931, "timestamp": "2025-12-23T16:57:12.011496+00:00", "meta": {"OBJECT_NAME": "HUANJING 1A (HJ-1A)", "OBJECT_ID": "2008-041A", "EPOCH": "2025-12-23T06:52:19.299072", "MEAN_MOTION": 14.83426962, "ECCENTRICITY": 0.00193784, "INCLINATION": 97.6543, "RA_OF_ASC_NODE": 345.1446, "ARG_OF_PERICENTER": 1.0541, "MEAN_ANOMALY": 359.0711, "EPHEMERIS_TYPE": 0, "CLASSIFICATION_TYPE": "U", "NORAD_CAT_ID": 33320, "ELEMENT_SET_NO": 999, "REV_AT_EPOCH": 93232, "BSTAR": 0.00022618692, "MEAN_MOTION_DOT": 1.812e-05, "MEAN_MOTION_DDOT": 0}, "tle": {"line1": "1 33320U 08041A   25357.28633448  .00001812  00000+0  22619-3 0  9998", "line2": "2 33320  97.6543 345.1446 0019378   1.0541 359.0711 14.83426962932323"}}, "geometry": {"type": "Point", "coordinates": [-58.61516870739005, 79.07447501642302]}}, {"type": "Feature", "properties": {"norad_id": 33321, "name": "HUANJING 1B (HJ-1B)", "group": "dmc", "lat": -77.47248582827093, "lon": 26.379151254340094, "alt_km": 641.2505652307618, "timestamp": "2025-12-23T16:57:12.011511+00:00", "meta": {"OBJECT_NAME": "HUANJING 1B (HJ-1B)", "OBJECT_ID": "2008-041B", "EPOCH": "2025-12-23T05:58:37.133760", "MEAN_MOTION": 14.82846017, "ECCENTRICITY": 0.00378657, "INCLINATION": 97.64, "RA_OF_ASC_NODE": 348.7781, "ARG_OF_PERICENTER": 42.4143, "MEAN_ANOMALY": 317.9987, "EPHEMERIS_TYPE": 0, "CLASSIFICATION_TYPE": "U", "NORAD_CAT_ID": 33321, "ELEMENT_SET_NO": 999, "REV_AT_EPOCH": 93233, "BSTAR": 0.00012646339, "MEAN_MOTION_DOT": 9.85e-06, "MEAN_MOTION_DDOT": 0}, "tle": {"line1": "1 33321U 08041B   25357.24904090  .00000985  00000+0  12646-3 0  9998", "line2": "2 33321  97.6400 348.7781 0037865  42.4143 317.9987 14.82846017932330"}}, "geometry": {"type": "Point", "coordinates": [26.379151254340094, -77.47248582827093]}}, {"type": "Feature", "properties": {"norad_id": 33446, "name": "YAOGAN-4", "group": "dmc", "lat": -6.7455081953212535, "lon": 106.75532679872354, "alt_km": 625.8953960608214, "timestamp": "2025-12-23T16:57:12.011523+00:00", "meta": {"OBJECT_NAME": "YAOGAN-4", "OBJECT_ID": "2008-061A", "EPOCH": "2025-12-23T01:32:09.119616", "MEAN_MOTION": 14.8271129, "ECCENTRICITY": 0.00130344, "INCLINATION": 97.9196, "RA_OF_ASC_NODE": 287.0626, "ARG_OF_PERICENTER": 286.8037, "MEAN_ANOMALY": 73.1747, "EPHEMERIS_TYPE": 0, "CLASSIFICATION_TYPE": "U", "NORAD_CAT_ID": 33446, "ELEMENT_SET_NO": 999, "REV_AT_EPOCH": 91956, "BSTAR": 0.0001704414, "MEAN_MOTION_DOT": 1.323e-05, "MEAN_MOTION_DDOT": 0}, "tle": {"line1": "1 33446U 08061A   25357.06399444  .00001323  00000+0  17044-3 0  9993", "line2": "2 33446  97.9196 287.0626 0013034 286.8037  73.1747 14.82711290919563"}}, "geometry": {"type": "Point", "coordinates": [106.75532679872354, -6.7455081953212535]}}, {"type": "Feature", "properties": {"norad_id": 35681, "name": "DEIMOS-1", "group": "dmc", "lat": 11.188903991243116, "lon": 156.26270202005097, "alt_km": 645.5581147677558, "timestamp": "2025-12-23T16:57:12.011534+00:00", "meta": {"OBJECT_NAME": "DEIMOS-1", "OBJECT_ID": "2009-041A", "EPOCH": "2025-12-23T07:08:00.360096", "MEAN_MOTION": 14.74968378, "ECCENTRICITY": 0.00025389, "INCLINATION": 97.7151, "RA_OF_ASC_NODE": 157.4093, "ARG_OF_PERICENTER": 62.9326, "MEAN_ANOMALY": 297.2143, "EPHEMERIS_TYPE": 0, "CLASSIFICATION_TYPE": "U", "NORAD_CAT_ID": 35681, "ELEMENT_SET_NO": 999, "REV_AT_EPOCH": 88095, "BSTAR": 0.00014413303, "MEAN_MOTION_DOT": 9.21e-06, "MEAN_MOTION_DDOT": 0}, "tle": {"line1": "1 35681U 09041A   25357.29722639  .00000921  00000+0  14413-3 0  9996", "line2": "2 35681  97.7151 157.4093 0002538  62.9326 297.2143 14.74968378880955"}}, "geometry": {"type": "Point", "coordinates": [156.26270202005097, 11.188903991243116]}}, {"type": "Feature", "properties": {"norad_id": 35683, "name": "UK-DMC 2", "group": "dmc", "lat": 52.352730061179436, "lon": 121.98775213542923, "alt_km": 637.3949595338509, "timestamp": "2025-12-23T16:57:12.011545+00:00", "meta": {"OBJECT_NAME": "UK-DMC 2", "OBJECT_ID": "2009-041C", "EPOCH": "2025-12-23T06:56:57.680736", "MEAN_MOTION": 14.75643474, "ECCENTRICITY": 0.00015432, "INCLINATION": 97.8571, "RA_OF_ASC_NODE": 131.8948, "ARG_OF_PERICENTER": 93.5401, "MEAN_ANOMALY": 266.5985, "EPHEMERIS_TYPE": 0, "CLASSIFICATION_TYPE": "U", "NORAD_CAT_ID": 35683, "ELEMENT_SET_NO": 999, "REV_AT_EPOCH": 88062, "BSTAR": 0.0001815188, "MEAN_MOTION_DOT": 1.19e-05, "MEAN_MOTION_DDOT": 0}, "tle": {"line1": "1 35683U 09041C   25357.28955649  .00001190  00000+0  18152-3 0  9999", "line2": "2 35683  97.8571 131.8948 0001543  93.5401 266.5985 14.75643474880623"}}, "geometry": {"type": "Point", "coordinates": [121.98775213542923, 52.352730061179436]}}, {"type": "Feature", "properties": {"norad_id": 40715, "name": "DMC3-FM1", "group": "dmc", "lat": 50.38997214621769, "lon": 53.86887701066728, "alt_km": 609.9407676143646, "timestamp": "2025-12-23T16:57:12.011571+00:00", "meta": {"OBJECT_NAME": "DMC3-FM1", "OBJECT_ID": "2015-032A", "EPOCH": "2025-12-23T06:40:29.016768", "MEAN_MOTION": 14.85458942, "ECCENTRICITY": 0.0004035, "INCLINATION": 97.6685, "RA_OF_ASC_NODE": 224.0863, "ARG_OF_PERICENTER": 278.3299, "MEAN_ANOMALY": 81.7459, "EPHEMERIS_TYPE": 0, "CLASSIFICATION_TYPE": "U", "NORAD_CAT_ID": 40715, "ELEMENT_SET_NO": 999, "REV_AT_EPOCH": 56379, "BSTAR": 0.00013131869, "MEAN_MOTION_DOT": 1.081e-05, "MEAN_MOTION_DDOT": 0}, "tle": {"line1": "1 40715U 15032A   25357.27811362  .00001081  00000+0  13132-3 0  9992", "line2": "2 40715  97.6685 224.0863 0004035 278.3299  81.7459 14.85458942563791"}}, "geometry": {"type": "Point", "coordinates": [53.86887701066728, 50.38997214621769]}}, {"type": "Feature", "properties": {"norad_id": 40716, "name": "DMC3-FM2", "group": "dmc", "lat": 8.621110016922199, "lon": -135.22114668556137, "alt_km": 613.719884065199, "timestamp": "2025-12-23T16:57:12.011584+00:00", "meta": {"OBJECT_NAME": "DMC3-FM2", "OBJECT_ID": "2015-032B", "EPOCH": "2025-12-23T07:12:51.600672", "MEAN_MOTION": 14.85456931, "ECCENTRICITY": 0.0004686, "INCLINATION": 97.6742, "RA_OF_ASC_NODE": 225.5591, "ARG_OF_PERICENTER": 284.9406, "MEAN_ANOMALY": 75.129, "EPHEMERIS_TYPE": 0, "CLASSIFICATION_TYPE": "U", "NORAD_CAT_ID": 40716, "ELEMENT_SET_NO": 999, "REV_AT_EPOCH": 56379, "BSTAR": 2.7315044e-05, "MEAN_MOTION_DOT": 1.84e-06, "MEAN_MOTION_DDOT": 0}, "tle": {"line1": "1 40716U 15032B   25357.30059723  .00000184  00000+0  27315-4 0  9994", "line2": "2 40716  97.6742 225.5591 0004686 284.9406  75.1290 14.85456931563791"}}, "geometry": {"type": "Point", "coordinates": [-135.22114668556137, 8.621110016922199]}}, {"type": "Feature", "properties": {"norad_id": 40717, "name": "DMC3-FM3", "group": "dmc", "lat": -71.1222316155919, "lon": 24.349428354890208, "alt_km": 617.0730583067125, "timestamp": "2025-12-23T16:57:12.011596+00:00", "meta": {"OBJECT_NAME": "DMC3-FM3", "OBJECT_ID": "2015-032C", "EPOCH": "2025-12-23T06:07:07.921056", "MEAN_MOTION": 14.85442906, "ECCENTRICITY": 0.00040619, "INCLINATION": 97.6795, "RA_OF_ASC_NODE": 227.1553, "ARG_OF_PERICENTER": 285.5807, "MEAN_ANOMALY": 74.496, "EPHEMERIS_TYPE": 0, "CLASSIFICATION_TYPE": "U", "NORAD_CAT_ID": 40717, "ELEMENT_SET_NO": 999, "REV_AT_EPOCH": 56379, "BSTAR": 6.6553305e-05, "MEAN_MOTION_DOT": 5.22e-06, "MEAN_MOTION_DDOT": 0}, "tle": {"line1": "1 40717U 15032C   25357.25495279  .00000522  00000+0  66553-4 0  9992", "line2": "2 40717  97.6795 227.1553 0004061 285.5807  74.4960 14.85442906563798"}}, "geometry": {"type": "Point", "coordinates": [24.349428354890208, -71.1222316155919]}}]}